NORAD_CAT_ID,OBJECT_NAME,OBJECT_TYPE,EPOCH,MEAN_MOTION,ECCENTRICITY,INCLINATION,RA_OF_ASC_NODE,ARG_OF_PERICENTER,MEAN_ANOMALY,BSTAR,MEAN_MOTION_DOT,MEAN_MOTION_DDOT,TLE_LINE0,TLE_LINE1,TLE_LINE2,SEMIMAJOR_AXIS,PERIOD,APOGEE,PERIGEE,DECAYED
51809.0,STARLINK-3607,PAYLOAD,2023-02-25 20:04:43,15.08838624,0.0001129,53.2144,272.4656,87.0992,273.013,8.4106e-05,1.051e-05,0.0,0 STARLINK-3607,1 51809U 22017AT  23056.83661174  .00001051  00000-0  84106-4 0  9997,2 51809  53.2144 272.4656 0001129  87.0992 273.0130 15.08838624 56815,6917.885,95.438,540.531,538.969,0.0
51809.0,STARLINK-3607,PAYLOAD,2023-02-26 13:33:57,15.08845001,0.0001119,53.2144,269.1943,86.4083,273.7037,0.00027195,4.043e-05,0.0,0 STARLINK-3607,1 51809U 22017AT  23057.56525144  .00004043  00000-0  27195-3 0  9992,2 51809  53.2144 269.1943 0001119  86.4083 273.7037 15.08845001 56922,6917.865,95.437,540.504,538.956,0.0
51809.0,STARLINK-3607,PAYLOAD,2023-02-26 16:44:43,15.08849312,0.0001157,53.2141,268.6001,89.8694,270.243,0.00034348,5.184e-05,0.0,0 STARLINK-3607,1 51809U 22017AT  23057.69772952  .00005184  00000-0  34348-3 0  9992,2 51809  53.2141 268.6001 0001157  89.8694 270.2430 15.08849312 56945,6917.852,95.437,540.517,538.917,0.0
51809.0,STARLINK-3607,PAYLOAD,2023-02-26 23:06:16,15.08856101,0.0001148,53.214,267.4105,90.6649,269.4475,0.00043917,6.711e-05,0.0,0 STARLINK-3607,1 51809U 22017AT  23057.96268599  .00006711  00000-0  43917-3 0  9998,2 51809  53.2140 267.4105 0001148  90.6649 269.4475 15.08856101 56983,6917.831,95.437,540.49,538.902,0.0
51809.0,STARLINK-3607,PAYLOAD,2023-02-27 10:13:58,15.08847837,0.0001135,53.2136,265.33,91.0455,269.0667,0.00027053,4.021e-05,0.0,0 STARLINK-3607,1 51809U 22017AT  23058.42636910  .00004021  00000-0  27053-3 0  9991,2 51809  53.2136 265.3300 0001135  91.0455 269.0667 15.08847837 57052,6917.856,95.437,540.507,538.936,0.0
51809.0,STARLINK-3607,PAYLOAD,2023-02-27 19:46:16,15.0885842,0.0001147,53.2133,263.545,90.8062,269.3062,0.00048264,7.405e-05,0.0,0 STARLINK-3607,1 51809U 22017AT  23058.82380473  .00007405  00000-0  48264-3 0  9991,2 51809  53.2133 263.5450 0001147  90.8062 269.3062 15.08858420 57118,6917.824,95.436,540.483,538.896,0.0
51809.0,STARLINK-3607,PAYLOAD,2023-02-28 13:15:31,15.08832263,0.0001184,53.214,260.2739,102.0171,258.0954,-0.00014114,-2.533e-05,0.0,0 STARLINK-3607,1 51809U 22017AT  23059.55245184 -.00002533  00000-0 -14114-3 0  9997,2 51809  53.2140 260.2739 0001184 102.0171 258.0954 15.08832263 57222,6917.904,95.438,540.588,538.95,0.0
51809.0,STARLINK-3607,PAYLOAD,2023-02-28 14:50:55,15.08830188,0.0001236,53.2141,259.9788,59.3811,300.7303,-0.00025867,-4.401e-05,0.0,0 STARLINK-3607,1 51809U 22017AT  23059.61869559 -.00004401  00000-0 -25867-3 0  9995,2 51809  53.2141 259.9788 0001236  59.3811 300.7303 15.08830188 57233,6917.91,95.438,540.63,538.92,0.0
51809.0,STARLINK-3607,PAYLOAD,2023-02-28 19:37:04,15.08830422,0.0001124,53.2145,259.0842,92.4157,267.6964,-0.00017113,-3.01e-05,0.0,0 STARLINK-3607,1 51809U 22017AT  23059.81741699 -.00003010  00000-0 -17113-3 0  9991,2 51809  53.2145 259.0842 0001124  92.4157 267.6964 15.08830422 57264,6917.91,95.438,540.552,538.997,0.0
51809.0,STARLINK-3607,PAYLOAD,2023-03-01 19:27:51,15.0884476,0.0001105,53.2148,254.6238,88.0359,272.0759,0.0001104,1.47e-05,0.0,0 STARLINK-3607,1 51809U 22017AT  23060.81100945  .00001470  00000-0  11040-3 0  9995,2 51809  53.2148 254.6238 0001105  88.0359 272.0759 15.08844760 57410,6917.866,95.437,540.495,538.966,0.0
51809.0,STARLINK-3607,PAYLOAD,2023-03-02 19:18:38,15.08834522,0.0001085,53.2149,250.1643,83.6693,276.4423,0.00018685,2.687e-05,0.0,0 STARLINK-3607,1 51809U 22017AT  23061.80461793  .00002687  00000-0  18685-3 0  9999,2 51809  53.2149 250.1643 0001085  83.6693 276.4423 15.08834522 57568,6917.897,95.438,540.513,539.012,0.0
51809.0,STARLINK-3607,PAYLOAD,2023-03-03 04:50:57,15.08841067,0.000106,53.2146,248.3787,78.923,281.1881,0.00014106,1.958e-05,0.0,0 STARLINK-3607,1 51809U 22017AT  23062.20205647  .00001958  00000-0  14106-3 0  9992,2 51809  53.2146 248.3787 0001060  78.9230 281.1881 15.08841067 57620,6917.877,95.437,540.475,539.009,0.0
51809.0,STARLINK-3607,PAYLOAD,2023-03-03 12:47:53,15.08847221,0.0001064,53.2145,246.8917,86.6368,273.4746,6.9371e-05,8.17e-06,0.0,0 STARLINK-3607,1 51809U 22017AT  23062.53325407  .00000817  00000-0  69371-4 0  9993,2 51809  53.2145 246.8917 0001064  86.6368 273.4746 15.08847221 57676,6917.858,95.437,540.459,538.987,0.0
51809.0,STARLINK-3607,PAYLOAD,2023-03-03 20:44:48,15.08856082,0.0001165,53.2138,245.4043,79.6626,280.4497,0.00019295,2.786e-05,0.0,0 STARLINK-3607,1 51809U 22017AT  23062.86444672  .00002786  00000-0  19295-3 0  9991,2 51809  53.2138 245.4043 0001165  79.6626 280.4497 15.08856082 57726,6917.831,95.437,540.502,538.89,0.0
51809.0,STARLINK-3607,PAYLOAD,2023-03-03 22:20:11,15.08857316,0.0001176,53.2136,245.1068,81.4668,278.6457,0.00022447,3.288e-05,0.0,0 STARLINK-3607,1 51809U 22017AT  23062.93068586  .00003288  00000-0  22447-3 0  9996,2 51809  53.2136 245.1068 0001176  81.4668 278.6457 15.08857316 57734,6917.827,95.436,540.506,538.879,0.0
51809.0,STARLINK-3607,PAYLOAD,2023-03-04 04:41:44,15.08841556,0.0001602,53.2134,243.9168,82.5373,277.5801,3.647e-05,2.92e-06,0.0,0 STARLINK-3607,1 51809U 22017AT  23063.19565418  .00000292  00000-0  36470-4 0  9995,2 51809  53.2134 243.9168 0001602  82.5373 277.5801 15.08841556 57772,6917.876,95.437,540.849,538.632,0.0
51809.0,STARLINK-3607,PAYLOAD,2023-03-04 12:38:40,15.08835327,0.0001386,53.2134,242.4305,96.306,263.809,1.2116e-06,-2.69e-06,0.0,0 STARLINK-3607,1 51809U 22017AT  23063.52685651 -.00000269  00000-0  12116-5 0  9991,2 51809  53.2134 242.4305 0001386  96.3060 263.8090 15.08835327 57827,6917.895,95.438,540.718,538.801,0.0
51809.0,STARLINK-3607,PAYLOAD,2023-03-04 20:35:35,15.08840419,0.0001244,53.2142,240.9442,91.8346,268.2789,1.5149e-05,-4.7e-07,0.0,0 STARLINK-3607,1 51809U 22017AT  23063.85805422 -.00000047  00000-0  15149-4 0  9999,2 51809  53.2142 240.9442 0001244  91.8346 268.2789 15.08840419 57878,6917.879,95.438,540.605,538.884,0.0
51809.0,STARLINK-3607,PAYLOAD,2023-03-05 04:32:31,15.08840241,0.000124,53.2148,239.4582,94.9742,265.1392,-3.1723e-05,-7.93e-06,0.0,0 STARLINK-3607,1 51809U 22017AT  23064.18925456 -.00000793  00000-0 -31723-4 0  9991,2 51809  53.2148 239.4582 0001240  94.9742 265.1392 15.08840241 57927,6917.88,95.438,540.602,538.887,0.0
51809.0,STARLINK-3607,PAYLOAD,2023-03-05 18:50:59,15.0884259,0.0001149,53.2144,236.7806,93.3404,266.7719,-1.9939e-05,-6.05e-06,0.0,0 STARLINK-3607,1 51809U 22017AT  23064.78541368 -.00000605  00000-0 -19939-4 0  9990,2 51809  53.2144 236.7806 0001149  93.3404 266.7719 15.08842590 58018,6917.872,95.437,540.532,538.943,0.0
51809.0,STARLINK-3607,PAYLOAD,2023-03-06 20:17:10,15.08843121,0.000161,53.2144,232.0217,86.0351,274.0825,0.00015221,2.135e-05,0.0,0 STARLINK-3607,1 51809U 22017AT  23065.84525628  .00002135  00000-0  15221-3 0  9996,2 51809  53.2144 232.0217 0001610  86.0351 274.0825 15.08843121 58174,6917.871,95.437,540.85,538.622,0.0
51809.0,STARLINK-3607,PAYLOAD,2023-03-07 10:35:38,15.08838722,0.0001666,53.2145,229.3463,89.3643,270.754,0.00011735,1.58e-05,0.0,0 STARLINK-3607,1 51809U 22017AT  23066.44142036  .00001580  00000-0  11735-3 0  9990,2 51809  53.2145 229.3463 0001666  89.3643 270.7540 15.08838722 58266,6917.884,95.438,540.902,538.597,0.0
51809.0,STARLINK-3607,PAYLOAD,2023-03-07 16:57:11,15.08841959,0.0001399,53.2119,228.1572,91.0611,269.0541,0.00016928,2.407e-05,0.0,0 STARLINK-3607,1 51809U 22017AT  23066.70637829  .00002407  00000-0  16928-3 0  9996,2 51809  53.2119 228.1572 0001399  91.0611 269.0541 15.08841959 58306,6917.874,95.437,540.707,538.772,0.0
51809.0,STARLINK-3607,PAYLOAD,2023-03-08 16:47:58,15.08843631,0.0001964,53.2101,223.6956,92.282,267.8397,0.0001029,1.35e-05,0.0,0 STARLINK-3607,1 51809U 22017AT  23067.69998000  .00001350  00000-0  10290-3 0  9998,2 51809  53.2101 223.6956 0001964  92.2820 267.8397 15.08843631 58456,6917.869,95.437,541.093,538.376,0.0
51809.0,STARLINK-3607,PAYLOAD,2023-03-08 19:58:44,15.08845011,0.0001627,53.2133,223.0999,102.328,257.7895,0.00015719,2.215e-05,0.0,0 STARLINK-3607,1 51809U 22017AT  23067.83245999  .00002215  00000-0  15719-3 0  9998,2 51809  53.2133 223.0999 0001627 102.3280 257.7895 15.08845011 58478,6917.865,95.437,540.856,538.605,0.0
51809.0,STARLINK-3607,PAYLOAD,2023-03-09 03:55:40,15.08837906,0.0001642,53.2115,221.6149,93.9054,266.2125,0.00012294,1.669e-05,0.0,0 STARLINK-3607,1 51809U 22017AT  23068.16366363  .00001669  00000-0  12294-3 0  9991,2 51809  53.2115 221.6149 0001642  93.9054 266.2125 15.08837906 58521,6917.887,95.438,540.888,538.616,0.0
51809.0,STARLINK-3607,PAYLOAD,2023-03-09 16:38:44,15.08856755,0.0001419,53.2133,219.2356,83.8095,276.3058,0.00034252,5.17e-05,0.0,0 STARLINK-3607,1 51809U 22017AT  23068.69357325  .00005170  00000-0  34252-3 0  9996,2 51809  53.2133 219.2356 0001419  83.8095 276.3058 15.08856755 58608,6917.829,95.436,540.676,538.713,0.0
51809.0,STARLINK-3607,PAYLOAD,2023-03-10 16:29:32,15.08840128,0.0001279,53.2121,214.7744,93.8778,266.2361,9.5974e-05,1.24e-05,0.0,0 STARLINK-3607,1 51809U 22017AT  23069.68718087  .00001240  00000-0  95974-4 0  9995,2 51809  53.2121 214.7744 0001279  93.8778 266.2361 15.08840128 58757,6917.88,95.438,540.63,538.86,0.0
51809.0,STARLINK-3607,PAYLOAD,2023-03-11 09:58:47,15.08831659,0.0001346,53.214,211.5044,101.9554,258.1589,-0.00011771,-2.16e-05,0.0,0 STARLINK-3607,1 51809U 22017AT  23070.41582860 -.00002160  00000-0 -11771-3 0  9992,2 51809  53.2140 211.5044 0001346 101.9554 258.1589 15.08831659 58867,6917.906,95.438,540.702,538.84,0.0
51809.0,STARLINK-3607,PAYLOAD,2023-03-11 19:31:05,15.08851443,0.0001181,53.2166,209.7192,100.518,259.5946,8.3587e-05,1.043e-05,0.0,0 STARLINK-3607,1 51809U 22017AT  23070.81325367  .00001043  00000-0  83587-4 0  9995,2 51809  53.2166 209.7192 0001181 100.5180 259.5946 15.08851443 58927,6917.845,95.437,540.527,538.893,0.0
